<?xml version="1.0" encoding="UTF-8"?>
<kml xmlns="http://www.opengis.net/kml/2.2" xmlns:gx="http://www.google.com/kml/ext/2.2" xmlns:kml="http://www.opengis.net/kml/2.2" xmlns:atom="http://www.w3.org/2005/Atom">
<Document id="16ZL2jimf8cq3OYV1rsXJg2TLzOhQoUiK">
	<name>Unbenanntes Kartenprojekt</name>
	<gx:CascadingStyle kml:id="__managed_style_086122DFE641F89714C0_highlight">
		<Style>
			<IconStyle>
				<scale>1.2</scale>
				<Icon>
					<href>https://earth.google.com/earth/document/icon?color=1976d2&amp;id=2000&amp;scale=4</href>
				</Icon>
				<hotSpot x="64" y="128" xunits="pixels" yunits="insetPixels"/>
			</IconStyle>
			<LabelStyle>
			</LabelStyle>
			<LineStyle>
				<color>ff2dc0fb</color>
				<width>6</width>
			</LineStyle>
			<PolyStyle>
				<color>40ffffff</color>
			</PolyStyle>
			<BalloonStyle>
			</BalloonStyle>
		</Style>
	</gx:CascadingStyle>
	<gx:CascadingStyle kml:id="__managed_style_086122DFE641F89714C0_normal">
		<Style>
			<IconStyle>
				<Icon>
					<href>https://earth.google.com/earth/document/icon?color=1976d2&amp;id=2000&amp;scale=4</href>
				</Icon>
				<hotSpot x="64" y="128" xunits="pixels" yunits="insetPixels"/>
			</IconStyle>
			<LabelStyle>
			</LabelStyle>
			<LineStyle>
				<color>ff2dc0fb</color>
				<width>4</width>
			</LineStyle>
			<PolyStyle>
				<color>40ffffff</color>
			</PolyStyle>
			<BalloonStyle>
			</BalloonStyle>
		</Style>
	</gx:CascadingStyle>
	<StyleMap id="__managed_style_086122DFE641F89714C0">
		<Pair>
			<key>normal</key>
			<styleUrl>#__managed_style_086122DFE641F89714C0_normal</styleUrl>
		</Pair>
		<Pair>
			<key>highlight</key>
			<styleUrl>#__managed_style_086122DFE641F89714C0_highlight</styleUrl>
		</Pair>
	</StyleMap>
	<Placemark id="0AC39D376241F89714B1">
		<name>Play Area</name>
		<LookAt>
			<longitude>11.75207560104472</longitude>
			<latitude>53.31358759733957</latitude>
			<altitude>-7.073241992117119e-10</altitude>
			<heading>4.54648567273712</heading>
			<tilt>2.607919702515342</tilt>
			<gx:fovy>35</gx:fovy>
			<range>1285902.315805839</range>
			<altitudeMode>absolute</altitudeMode>
		</LookAt>
		<styleUrl>#__managed_style_086122DFE641F89714C0</styleUrl>
		<Polygon>
			<outerBoundaryIs>
				<LinearRing>
					<coordinates>
						7.120509403389333,53.25376374474772,0 7.023983155042264,52.81651306721999,0 6.960570110362752,52.66873577959282,0 6.656297083861052,52.66895886040039,0 6.608299540437339,52.4226442331825,0 7.000722776500606,52.34151917177756,0 6.787004523592759,52.22635556376029,0 6.786085717458443,52.17508334889384,0 6.664536668113222,52.09722890957523,0 6.702276330782617,51.98521717834161,0 6.651292386473839,51.93284677709563,0 6.026858027860711,51.92712023540542,0 5.904013530089918,51.84295200272819,0 5.919665994709968,51.73468209699482,0 6.038430647458862,51.60814932202879,0 6.157670897295726,51.48082409097579,0 6.109278747489803,51.29602749346927,0 5.989047260669804,51.17569288474301,0 5.87633391863323,51.08128655960176,0 5.820030238402261,50.99469349335348,0 5.946326617082144,50.93340529075463,0 5.996330680396698,50.88836252744337,0 5.950936077158497,50.81951332652202,0 5.938502348905466,50.73189932411486,0 6.028879620831756,50.65212278196881,0 6.115512372809333,50.58668821583439,0 6.200231592235279,50.44773064282813,0 6.262306957882828,50.35077076033301,0 6.035955498935062,50.08402609209175,0 6.048470792071141,49.96361297156798,0 6.2211114292939,49.82306818422425,0 6.33460706318405,49.60345023664659,0 6.297283082835358,49.39245981384481,0 6.584675540402984,49.15234016350196,0 7.624120245580139,48.96538047372508,0 8.084912276645449,48.94423907395387,0 8.521009374908157,48.96764660657982,0 9.472798753992651,49.11378630840301,0 10.27079838955992,49.65478339189904,0 10.83325009670397,50.22293698001625,0 11.32581913151659,50.87557580356543,0 11.6594712233785,51.52925563801448,0 11.94246701832943,51.9982613502734,0 12.04348110608407,52.52208838441034,0 12.01976830107442,53.01345199096546,0 11.95659219697061,53.39889597242055,0 11.80856804028325,53.75584800153513,0 11.56925021850039,54.06081471318195,0 11.3887899593964,54.43869753689904,0 11.31028594288766,54.5601189943588,0 10.62836042776196,54.74283993407408,0 9.71914547172279,54.85617001480568,0 8.303477847449848,54.90540922136148,0 7.678407176576436,54.61526176430366,0 8.691522889270464,54.12834913190856,0 8.454530483954272,53.90522111917788,0 7.245761567270228,53.86067713529221,0 6.366788076827394,53.74114766729248,0 7.120509403389333,53.25376374474772,0 
					</coordinates>
				</LinearRing>
			</outerBoundaryIs>
		</Polygon>
	</Placemark>
</Document>
</kml>
